{"type": "FeatureCollection", "features": [{"type": "Feature", "properties": {"scalerank": 1, "featurecla": "Admin-0 country", "LABELRANK": 2, "SOVEREIGNT": "China", "SOV_A3": "CH1", "ADM0_DIF": 1, "LEVEL": 2, "TYPE": "Country", "ADMIN": "China", "ADM0_A3": "CHN", "GEOU_DIF": 0, "GEOUNIT": "China", "GU_A3": "CHN", "SU_DIF": 0, "SUBUNIT": "China", "SU_A3": "CHN", "BRK_DIFF": 0, "NAME": "China", "NAME_LONG": "China", "BRK_A3": "CHN", "BRK_NAME": "China", "BRK_GROUP": null, "ABBREV": "China", "POSTAL": "CN", "FORMAL_EN": "People's Republic of China", "FORMAL_FR": null, "NAME_CIAWF": "China", "NOTE_ADM0": null, "NOTE_BRK": null, "NAME_SORT": "China", "NAME_ALT": null, "MAPCOLOR7": 4, "MAPCOLOR8": 4, "MAPCOLOR9": 4, "MAPCOLOR13": 3, "POP_EST": 1379302771, "POP_RANK": 18, "GDP_MD_EST": 21140000, "POP_YEAR": 2017, "LASTCENSUS": 2010, "GDP_YEAR": 2016, "ECONOMY": "3. Emerging region: BRIC", "INCOME_GRP": "3. Upper middle income", "WIKIPEDIA": -99, "FIPS_10_": "CH", "ISO_A2": "CN", "ISO_A3": "CHN", "ISO_A3_EH": "CHN", "ISO_N3": "156", "UN_A3": "156", "WB_A2": "CN", "WB_A3": "CHN", "WOE_ID": 23424781, "WOE_ID_EH": 23424781, "WOE_NOTE": "Exact WOE match as country", "ADM0_A3_IS": "CHN", "ADM0_A3_US": "CHN", "ADM0_A3_UN": -99, "ADM0_A3_WB": -99, "CONTINENT": "Asia", "REGION_UN": "Asia", "SUBREGION": "Eastern Asia", "REGION_WB": "East Asia & Pacific", "NAME_LEN": 5, "LONG_LEN": 5, "ABBREV_LEN": 5, "TINY": -99, "HOMEPART": 1, "MIN_ZOOM": 0, "MIN_LABEL": 1.7, "MAX_LABEL": 5.7}, "bbox": [73.675379, 18.197701, 135.026311, 53.4588], "geometry": {"type": "MultiPolygon", "coordinates": [[[[75.158028, 37.133031], [74.980002, 37.41999], [74.829986, 37.990007], [74.864816, 38.378846], [74.257514, 38.606507], [73.928852, 38.505815], [73.675379, 39.431237], [73.960013, 39.660008], [73.822244, 39.893973], [74.776862, 40.366425], [75.467828, 40.562072], [76.526368, 40.427946], [76.904484, 41.066486], [78.187197, 41.185316], [78.543661, 41.582243], [80.11943, 42.123941], [80.25999, 42.349999], [80.18015, 42.920068], [80.866206, 43.180362], [79.966106, 44.917517], [81.947071, 45.317027], [82.458926, 45.53965], [83.180484, 47.330031], [85.16429, 47.000956], [85.720484, 47.452969], [85.768233, 48.455751], [86.598776, 48.549182], [87.35997, 49.214981], [87.751264, 49.297198], [88.013832, 48.599463], [88.854298, 48.069082], [90.280826, 47.693549], [90.970809, 46.888146], [90.585768, 45.719716], [90.94554, 45.286073], [92.133891, 45.115076], [93.480734, 44.975472], [94.688929, 44.352332], [95.306875, 44.241331], [95.762455, 43.319449], [96.349396, 42.725635], [97.451757, 42.74889], [99.515817, 42.524691], [100.845866, 42.663804], [101.83304, 42.514873], [103.312278, 41.907468], [104.522282, 41.908347], [104.964994, 41.59741], [106.129316, 42.134328], [107.744773, 42.481516], [109.243596, 42.519446], [110.412103, 42.871234], [111.129682, 43.406834], [111.829588, 43.743118], [111.667737, 44.073176], [111.348377, 44.457442], [111.873306, 45.102079], [112.436062, 45.011646], [113.463907, 44.808893], [114.460332, 45.339817], [115.985096, 45.727235], [116.717868, 46.388202], [117.421701, 46.672733], [118.874326, 46.805412], [119.66327, 46.69268], [119.772824, 47.048059], [118.866574, 47.74706], [118.064143, 48.06673], [117.295507, 47.697709], [116.308953, 47.85341], [115.742837, 47.726545], [115.485282, 48.135383], [116.191802, 49.134598], [116.678801, 49.888531], [117.879244, 49.510983], [119.288461, 50.142883], [119.27939, 50.58292], [120.18208, 51.64355], [120.7382, 51.96411], [120.725789, 52.516226], [120.177089, 52.753886], [121.003085, 53.251401], [122.245748, 53.431726], [123.57147, 53.4588], [125.068211, 53.161045], [125.946349, 52.792799], [126.564399, 51.784255], [126.939157, 51.353894], [127.287456, 50.739797], [127.6574, 49.76027], [129.397818, 49.4406], [130.582293, 48.729687], [130.98726, 47.79013], [132.50669, 47.78896], [133.373596, 48.183442], [135.026311, 48.47823], [134.50081, 47.57845], [134.11235, 47.21248], [133.769644, 46.116927], [133.09712, 45.14409], [131.883454, 45.321162], [131.02519, 44.96796], [131.288555, 44.11152], [131.144688, 42.92999], [130.633866, 42.903015], [130.64, 42.395024], [129.994267, 42.985387], [129.596669, 42.424982], [128.052215, 41.994285], [128.208433, 41.466772], [127.343783, 41.503152], [126.869083, 41.816569], [126.182045, 41.107336], [125.079942, 40.569824], [124.265625, 39.928493], [122.86757, 39.637788], [122.131388, 39.170452], [121.054554, 38.897471], [121.585995, 39.360854], [121.376757, 39.750261], [122.168595, 40.422443], [121.640359, 40.94639], [120.768629, 40.593388], [119.639602, 39.898056], [119.023464, 39.252333], [118.042749, 39.204274], [117.532702, 38.737636], [118.059699, 38.061476], [118.87815, 37.897325], [118.911636, 37.448464], [119.702802, 37.156389], [120.823457, 37.870428], [121.711259, 37.481123], [122.357937, 37.454484], [122.519995, 36.930614], [121.104164, 36.651329], [120.637009, 36.11144], [119.664562, 35.609791], [119.151208, 34.909859], [120.227525, 34.360332], [120.620369, 33.376723], [121.229014, 32.460319], [121.908146, 31.692174], [121.891919, 30.949352], [121.264257, 30.676267], [121.503519, 30.142915], [122.092114, 29.83252], [121.938428, 29.018022], [121.684439, 28.225513], [121.125661, 28.135673], [120.395473, 27.053207], [119.585497, 25.740781], [118.656871, 24.547391], [117.281606, 23.624501], [115.890735, 22.782873], [114.763827, 22.668074], [114.152547, 22.22376], [113.80678, 22.54834], [113.241078, 22.051367], [111.843592, 21.550494], [110.785466, 21.397144], [110.444039, 20.341033], [109.889861, 20.282457], [109.627655, 21.008227], [109.864488, 21.395051], [108.522813, 21.715212], [108.05018, 21.55238], [107.04342, 21.811899], [106.567273, 22.218205], [106.725403, 22.794268], [105.811247, 22.976892], [105.329209, 23.352063], [104.476858, 22.81915], [103.504515, 22.703757], [102.706992, 22.708795], [102.170436, 22.464753], [101.652018, 22.318199], [101.80312, 21.174367], [101.270026, 21.201652], [101.180005, 21.436573], [101.150033, 21.849984], [100.416538, 21.558839], [99.983489, 21.742937], [99.240899, 22.118314], [99.531992, 22.949039], [98.898749, 23.142722], [98.660262, 24.063286], [97.60472, 23.897405], [97.724609, 25.083637], [98.671838, 25.918703], [98.712094, 26.743536], [98.68269, 27.508812], [98.246231, 27.747221], [97.911988, 28.335945], [97.327114, 28.261583], [96.248833, 28.411031], [96.586591, 28.83098], [96.117679, 29.452802], [95.404802, 29.031717], [94.56599, 29.277438], [93.413348, 28.640629], [92.503119, 27.896876], [91.696657, 27.771742], [91.258854, 28.040614], [90.730514, 28.064954], [90.015829, 28.296439], [89.47581, 28.042759], [88.814248, 27.299316], [88.730326, 28.086865], [88.120441, 27.876542], [86.954517, 27.974262], [85.82332, 28.203576], [85.011638, 28.642774], [84.23458, 28.839894], [83.898993, 29.320226], [83.337115, 29.463732], [82.327513, 30.115268], [81.525804, 30.422717], [81.111256, 30.183481], [79.721367, 30.882715], [78.738894, 31.515906], [78.458446, 32.618164], [79.176129, 32.48378], [79.208892, 32.994395], [78.811086, 33.506198], [78.912269, 34.321936], [77.837451, 35.49401], [76.192848, 35.898403], [75.896897, 36.666806], [75.158028, 37.133031]]], [[[110.339188, 18.678395], [109.47521, 18.197701], [108.655208, 18.507682], [108.626217, 19.367888], [109.119056, 19.821039], [110.211599, 20.101254], [110.786551, 20.077534], [111.010051, 19.69593], [110.570647, 19.255879], [110.339188, 18.678395]]]]}}, {"type": "Feature", "properties": {"scalerank": 1, "featurecla": "Admin-0 country", "LABELRANK": 2, "SOVEREIGNT": "Colombia", "SOV_A3": "COL", "ADM0_DIF": 0, "LEVEL": 2, "TYPE": "Sovereign country", "ADMIN": "Colombia", "ADM0_A3": "COL", "GEOU_DIF": 0, "GEOUNIT": "Colombia", "GU_A3": "COL", "SU_DIF": 0, "SUBUNIT": "Colombia", "SU_A3": "COL", "BRK_DIFF": 0, "NAME": "Colombia", "NAME_LONG": "Colombia", "BRK_A3": "COL", "BRK_NAME": "Colombia", "BRK_GROUP": null, "ABBREV": "Col.", "POSTAL": "CO", "FORMAL_EN": "Republic of Colombia", "FORMAL_FR": null, "NAME_CIAWF": "Colombia", "NOTE_ADM0": null, "NOTE_BRK": null, "NAME_SORT": "Colombia", "NAME_ALT": null, "MAPCOLOR7": 2, "MAPCOLOR8": 1, "MAPCOLOR9": 3, "MAPCOLOR13": 1, "POP_EST": 47698524, "POP_RANK": 15, "GDP_MD_EST": 688000, "POP_YEAR": 2017, "LASTCENSUS": 2006, "GDP_YEAR": 2016, "ECONOMY": "6. Developing region", "INCOME_GRP": "3. Upper middle income", "WIKIPEDIA": -99, "FIPS_10_": "CO", "ISO_A2": "CO", "ISO_A3": "COL", "ISO_A3_EH": "COL", "ISO_N3": "170", "UN_A3": "170", "WB_A2": "CO", "WB_A3": "COL", "WOE_ID": 23424787, "WOE_ID_EH": 23424787, "WOE_NOTE": "Exact WOE match as country", "ADM0_A3_IS": "COL", "ADM0_A3_US": "COL", "ADM0_A3_UN": -99, "ADM0_A3_WB": -99, "CONTINENT": "South America", "REGION_UN": "Americas", "SUBREGION": "South America", "REGION_WB": "Latin America & Caribbean", "NAME_LEN": 8, "LONG_LEN": 8, "ABBREV_LEN": 4, "TINY": -99, "HOMEPART": 1, "MIN_ZOOM": 0, "MIN_LABEL": 2, "MAX_LABEL": 7}, "bbox": [-78.990935, -4.298187, -66.876326, 12.437303], "geometry": {"type": "Polygon", "coordinates": [[[-66.876326, 1.253361], [-67.065048, 1.130112], [-67.259998, 1.719999], [-67.53781, 2.037163], [-67.868565, 1.692455], [-69.816973, 1.714805], [-69.804597, 1.089081], [-69.218638, 0.985677], [-69.252434, 0.602651], [-69.452396, 0.706159], [-70.015566, 0.541414], [-70.020656, -0.185156], [-69.577065, -0.549992], [-69.420486, -1.122619], [-69.444102, -1.556287], [-69.893635, -4.298187], [-70.394044, -3.766591], [-70.692682, -3.742872], [-70.047709, -2.725156], [-70.813476, -2.256865], [-71.413646, -2.342802], [-71.774761, -2.16979], [-72.325787, -2.434218], [-73.070392, -2.308954], [-73.659504, -1.260491], [-74.122395, -1.002833], [-74.441601, -0.53082], [-75.106625, -0.057205], [-75.373223, -0.152032], [-75.801466, 0.084801], [-76.292314, 0.416047], [-76.57638, 0.256936], [-77.424984, 0.395687], [-77.668613, 0.825893], [-77.855061, 0.809925], [-78.855259, 1.380924], [-78.990935, 1.69137], [-78.617831, 1.766404], [-78.662118, 2.267355], [-78.42761, 2.629556], [-77.931543, 2.696606], [-77.510431, 3.325017], [-77.12769, 3.849636], [-77.496272, 4.087606], [-77.307601, 4.667984], [-77.533221, 5.582812], [-77.318815, 5.845354], [-77.476661, 6.691116], [-77.881571, 7.223771], [-77.753414, 7.70984], [-77.431108, 7.638061], [-77.242566, 7.935278], [-77.474723, 8.524286], [-77.353361, 8.670505], [-76.836674, 8.638749], [-76.086384, 9.336821], [-75.6746, 9.443248], [-75.664704, 9.774003], [-75.480426, 10.61899], [-74.906895, 11.083045], [-74.276753, 11.102036], [-74.197223, 11.310473], [-73.414764, 11.227015], [-72.627835, 11.731972], [-72.238195, 11.95555], [-71.75409, 12.437303], [-71.399822, 12.376041], [-71.137461, 12.112982], [-71.331584, 11.776284], [-71.973922, 11.608672], [-72.227575, 11.108702], [-72.614658, 10.821975], [-72.905286, 10.450344], [-73.027604, 9.73677], [-73.304952, 9.152], [-72.78873, 9.085027], [-72.660495, 8.625288], [-72.439862, 8.405275], [-72.360901, 8.002638], [-72.479679, 7.632506], [-72.444487, 7.423785], [-72.198352, 7.340431], [-71.960176, 6.991615], [-70.674234, 7.087785], [-70.093313, 6.960376], [-69.38948, 6.099861], [-68.985319, 6.206805], [-68.265052, 6.153268], [-67.695087, 6.267318], [-67.34144, 6.095468], [-67.521532, 5.55687], [-67.744697, 5.221129], [-67.823012, 4.503937], [-67.621836, 3.839482], [-67.337564, 3.542342], [-67.303173, 3.318454], [-67.809938, 2.820655], [-67.447092, 2.600281], [-67.181294, 2.250638], [-66.876326, 1.253361]]]}}, {"type": "Feature", "properties": {"scalerank": 1, "featurecla": "Admin-0 country", "LABELRANK": 5, "SOVEREIGNT": "Costa Rica", "SOV_A3": "CRI", "ADM0_DIF": 0, "LEVEL": 2, "TYPE": "Sovereign country", "ADMIN": "Costa Rica", "ADM0_A3": "CRI", "GEOU_DIF": 0, "GEOUNIT": "Costa Rica", "GU_A3": "CRI", "SU_DIF": 0, "SUBUNIT": "Costa Rica", "SU_A3": "CRI", "BRK_DIFF": 0, "NAME": "Costa Rica", "NAME_LONG": "Costa Rica", "BRK_A3": "CRI", "BRK_NAME": "Costa Rica", "BRK_GROUP": null, "ABBREV": "C.R.", "POSTAL": "CR", "FORMAL_EN": "Republic of Costa Rica", "FORMAL_FR": null, "NAME_CIAWF": "Costa Rica", "NOTE_ADM0": null, "NOTE_BRK": null, "NAME_SORT": "Costa Rica", "NAME_ALT": null, "MAPCOLOR7": 3, "MAPCOLOR8": 2, "MAPCOLOR9": 4, "MAPCOLOR13": 2, "POP_EST": 4930258, "POP_RANK": 12, "GDP_MD_EST": 79260, "POP_YEAR": 2017, "LASTCENSUS": 2011, "GDP_YEAR": 2016, "ECONOMY": "5. Emerging region: G20", "INCOME_GRP": "3. Upper middle income", "WIKIPEDIA": -99, "FIPS_10_": "CS", "ISO_A2": "CR", "ISO_A3": "CRI", "ISO_A3_EH": "CRI", "ISO_N3": "188", "UN_A3": "188", "WB_A2": "CR", "WB_A3": "CRI", "WOE_ID": 23424791, "WOE_ID_EH": 23424791, "WOE_NOTE": "Exact WOE match as country", "ADM0_A3_IS": "CRI", "ADM0_A3_US": "CRI", "ADM0_A3_UN": -99, "ADM0_A3_WB": -99, "CONTINENT": "North America", "REGION_UN": "Americas", "SUBREGION": "Central America", "REGION_WB": "Latin America & Caribbean", "NAME_LEN": 10, "LONG_LEN": 10, "ABBREV_LEN": 4, "TINY": -99, "HOMEPART": 1, "MIN_ZOOM": 0, "MIN_LABEL": 3, "MAX_LABEL": 8}, "bbox": [-85.941725, 8.225028, -82.546196, 11.217119], "geometry": {"type": "Polygon", "coordinates": [[[-82.965783, 8.225028], [-83.508437, 8.446927], [-83.711474, 8.656836], [-83.596313, 8.830443], [-83.632642, 9.051386], [-83.909886, 9.290803], [-84.303402, 9.487354], [-84.647644, 9.615537], [-84.713351, 9.908052], [-84.97566, 10.086723], [-84.911375, 9.795992], [-85.110923, 9.55704], [-85.339488, 9.834542], [-85.660787, 9.933347], [-85.797445, 10.134886], [-85.791709, 10.439337], [-85.659314, 10.754331], [-85.941725, 10.895278], [-85.71254, 11.088445], [-85.561852, 11.217119], [-84.903003, 10.952303], [-84.673069, 11.082657], [-84.355931, 10.999226], [-84.190179, 10.79345], [-83.895054, 10.726839], [-83.655612, 10.938764], [-83.40232, 10.395438], [-83.015677, 9.992982], [-82.546196, 9.566135], [-82.932891, 9.476812], [-82.927155, 9.07433], [-82.719183, 8.925709], [-82.868657, 8.807266], [-82.829771, 8.626295], [-82.913176, 8.423517], [-82.965783, 8.225028]]]}}, {"type": "Feature", "properties": {"scalerank": 1, "featurecla": "Admin-0 country", "LABELRANK": 2, "SOVEREIGNT": "Mexico", "SOV_A3": "MEX", "ADM0_DIF": 0, "LEVEL": 2, "TYPE": "Sovereign country", "ADMIN": "Mexico", "ADM0_A3": "MEX", "GEOU_DIF": 0, "GEOUNIT": "Mexico", "GU_A3": "MEX", "SU_DIF": 0, "SUBUNIT": "Mexico", "SU_A3": "MEX", "BRK_DIFF": 0, "NAME": "Mexico", "NAME_LONG": "Mexico", "BRK_A3": "MEX", "BRK_NAME": "Mexico", "BRK_GROUP": null, "ABBREV": "Mex.", "POSTAL": "MX", "FORMAL_EN": "United Mexican States", "FORMAL_FR": null, "NAME_CIAWF": "Mexico", "NOTE_ADM0": null, "NOTE_BRK": null, "NAME_SORT": "Mexico", "NAME_ALT": null, "MAPCOLOR7": 6, "MAPCOLOR8": 1, "MAPCOLOR9": 7, "MAPCOLOR13": 3, "POP_EST": 124574795, "POP_RANK": 17, "GDP_MD_EST": 2307000, "POP_YEAR": 2017, "LASTCENSUS": 2010, "GDP_YEAR": 2016, "ECONOMY": "4. Emerging region: MIKT", "INCOME_GRP": "3. Upper middle income", "WIKIPEDIA": -99, "FIPS_10_": "MX", "ISO_A2": "MX", "ISO_A3": "MEX", "ISO_A3_EH": "MEX", "ISO_N3": "484", "UN_A3": "484", "WB_A2": "MX", "WB_A3": "MEX", "WOE_ID": 23424900, "WOE_ID_EH": 23424900, "WOE_NOTE": "Exact WOE match as country", "ADM0_A3_IS": "MEX", "ADM0_A3_US": "MEX", "ADM0_A3_UN": -99, "ADM0_A3_WB": -99, "CONTINENT": "North America", "REGION_UN": "Americas", "SUBREGION": "Central America", "REGION_WB": "Latin America & Caribbean", "NAME_LEN": 6, "LONG_LEN": 6, "ABBREV_LEN": 4, "TINY": -99, "HOMEPART": 1, "MIN_ZOOM": 0, "MIN_LABEL": 2, "MAX_LABEL": 6.7}, "bbox": [-117.12776, 14.538829, -86.811982, 32.72083], "geometry": {"type": "Polygon", "coordinates": [[[-88.300031, 18.499982], [-88.490123, 18.486831], [-88.848344, 17.883198], [-89.029857, 18.001511], [-89.150909, 17.955468], [-89.14308, 17.808319], [-90.067934, 17.819326], [-91.00152, 17.817595], [-91.002269, 17.254658], [-91.453921, 17.252177], [-91.08167, 16.918477], [-90.711822, 16.687483], [-90.600847, 16.470778], [-90.438867, 16.41011], [-90.464473, 16.069562], [-91.74796, 16.066565], [-92.229249, 15.251447], [-92.087216, 15.064585], [-92.20323, 14.830103], [-92.22775, 14.538829], [-93.359464, 15.61543], [-93.875169, 15.940164], [-94.691656, 16.200975], [-95.250227, 16.128318], [-96.053382, 15.752088], [-96.557434, 15.653515], [-97.263592, 15.917065], [-98.01303, 16.107312], [-98.947676, 16.566043], [-99.697397, 16.706164], [-100.829499, 17.171071], [-101.666089, 17.649026], [-101.918528, 17.91609], [-102.478132, 17.975751], [-103.50099, 18.292295], [-103.917527, 18.748572], [-104.99201, 19.316134], [-105.493038, 19.946767], [-105.731396, 20.434102], [-105.397773, 20.531719], [-105.500661, 20.816895], [-105.270752, 21.076285], [-105.265817, 21.422104], [-105.603161, 21.871146], [-105.693414, 22.26908], [-106.028716, 22.773752], [-106.90998, 23.767774], [-107.915449, 24.548915], [-108.401905, 25.172314], [-109.260199, 25.580609], [-109.444089, 25.824884], [-109.291644, 26.442934], [-109.801458, 26.676176], [-110.391732, 27.162115], [-110.641019, 27.859876], [-111.178919, 27.941241], [-111.759607, 28.467953], [-112.228235, 28.954409], [-112.271824, 29.266844], [-112.809594, 30.021114], [-113.163811, 30.786881], [-113.148669, 31.170966], [-113.871881, 31.567608], [-114.205737, 31.524045], [-114.776451, 31.799532], [-114.9367, 31.393485], [-114.771232, 30.913617], [-114.673899, 30.162681], [-114.330974, 29.750432], [-113.588875, 29.061611], [-113.424053, 28.826174], [-113.271969, 28.754783], [-113.140039, 28.411289], [-112.962298, 28.42519], [-112.761587, 27.780217], [-112.457911, 27.525814], [-112.244952, 27.171727], [-111.616489, 26.662817], [-111.284675, 25.73259], [-110.987819, 25.294606], [-110.710007, 24.826004], [-110.655049, 24.298595], [-110.172856, 24.265548], [-109.771847, 23.811183], [-109.409104, 23.364672], [-109.433392, 23.185588], [-109.854219, 22.818272], [-110.031392, 22.823078], [-110.295071, 23.430973], [-110.949501, 24.000964], [-111.670568, 24.484423], [-112.182036, 24.738413], [-112.148989, 25.470125], [-112.300711, 26.012004], [-112.777297, 26.32196], [-113.464671, 26.768186], [-113.59673, 26.63946], [-113.848937, 26.900064], [-114.465747, 27.14209], [-115.055142, 27.722727], [-114.982253, 27.7982], [-114.570366, 27.741485], [-114.199329, 28.115003], [-114.162018, 28.566112], [-114.931842, 29.279479], [-115.518654, 29.556362], [-115.887365, 30.180794], [-116.25835, 30.836464], [-116.721526, 31.635744], [-117.12776, 32.53534], [-115.99135, 32.61239], [-114.72139, 32.72083], [-114.815, 32.52528], [-113.30498, 32.03914], [-111.02361, 31.33472], [-109.035, 31.34194], [-108.24194, 31.34222], [-108.24, 31.754854], [-106.50759, 31.75452], [-106.1429, 31.39995], [-105.63159, 31.08383], [-105.03737, 30.64402], [-104.70575, 30.12173], [-104.45697, 29.57196], [-103.94, 29.27], [-103.11, 28.97], [-102.48, 29.76], [-101.6624, 29.7793], [-100.9576, 29.38071], [-100.45584, 28.69612], [-100.11, 28.11], [-99.52, 27.54], [-99.3, 26.84], [-99.02, 26.37], [-98.24, 26.06], [-97.53, 25.84], [-97.140008, 25.869997], [-97.528072, 24.992144], [-97.702946, 24.272343], [-97.776042, 22.93258], [-97.872367, 22.444212], [-97.699044, 21.898689], [-97.38896, 21.411019], [-97.189333, 20.635433], [-96.525576, 19.890931], [-96.292127, 19.320371], [-95.900885, 18.828024], [-94.839063, 18.562717], [-94.42573, 18.144371], [-93.548651, 18.423837], [-92.786114, 18.524839], [-92.037348, 18.704569], [-91.407903, 18.876083], [-90.77187, 19.28412], [-90.53359, 19.867418], [-90.451476, 20.707522], [-90.278618, 20.999855], [-89.601321, 21.261726], [-88.543866, 21.493675], [-87.658417, 21.458846], [-87.05189, 21.543543], [-86.811982, 21.331515], [-86.845908, 20.849865], [-87.383291, 20.255405], [-87.621054, 19.646553], [-87.43675, 19.472403], [-87.58656, 19.04013], [-87.837191, 18.259816], [-88.090664, 18.516648], [-88.300031, 18.499982]]]}}, {"type": "Feature", "properties": {"scalerank": 1, "featurecla": "Admin-0 country", "LABELRANK": 2, "SOVEREIGNT": "Peru", "SOV_A3": "PER", "ADM0_DIF": 0, "LEVEL": 2, "TYPE": "Sovereign country", "ADMIN": "Peru", "ADM0_A3": "PER", "GEOU_DIF": 0, "GEOUNIT": "Peru", "GU_A3": "PER", "SU_DIF": 0, "SUBUNIT": "Peru", "SU_A3": "PER", "BRK_DIFF": 0, "NAME": "Peru", "NAME_LONG": "Peru", "BRK_A3": "PER", "BRK_NAME": "Peru", "BRK_GROUP": null, "ABBREV": "Peru", "POSTAL": "PE", "FORMAL_EN": "Republic of Peru", "FORMAL_FR": null, "NAME_CIAWF": "Peru", "NOTE_ADM0": null, "NOTE_BRK": null, "NAME_SORT": "Peru", "NAME_ALT": null, "MAPCOLOR7": 4, "MAPCOLOR8": 4, "MAPCOLOR9": 4, "MAPCOLOR13": 11, "POP_EST": 31036656, "POP_RANK": 15, "GDP_MD_EST": 410400, "POP_YEAR": 2017, "LASTCENSUS": 2007, "GDP_YEAR": 2016, "ECONOMY": "5. Emerging region: G20", "INCOME_GRP": "3. Upper middle income", "WIKIPEDIA": -99, "FIPS_10_": "PE", "ISO_A2": "PE", "ISO_A3": "PER", "ISO_A3_EH": "PER", "ISO_N3": "604", "UN_A3": "604", "WB_A2": "PE", "WB_A3": "PER", "WOE_ID": 23424919, "WOE_ID_EH": 23424919, "WOE_NOTE": "Exact WOE match as country", "ADM0_A3_IS": "PER", "ADM0_A3_US": "PER", "ADM0_A3_UN": -99, "ADM0_A3_WB": -99, "CONTINENT": "South America", "REGION_UN": "Americas", "SUBREGION": "South America", "REGION_WB": "Latin America & Caribbean", "NAME_LEN": 4, "LONG_LEN": 4, "ABBREV_LEN": 4, "TINY": -99, "HOMEPART": 1, "MIN_ZOOM": 0, "MIN_LABEL": 2, "MAX_LABEL": 7}, "bbox": [-81.410943, -18.347975, -68.66508, -0.057205], "geometry": {"type": "Polygon", "coordinates": [[[-69.529678, -10.951734], [-68.66508, -12.5613], [-68.88008, -12.899729], [-68.929224, -13.602684], [-68.948887, -14.453639], [-69.339535, -14.953195], [-69.160347, -15.323974], [-69.389764, -15.660129], [-68.959635, -16.500698], [-69.590424, -17.580012], [-69.858444, -18.092694], [-70.372572, -18.347975], [-71.37525, -17.773799], [-71.462041, -17.363488], [-73.44453, -16.359363], [-75.237883, -15.265683], [-76.009205, -14.649286], [-76.423469, -13.823187], [-76.259242, -13.535039], [-77.106192, -12.222716], [-78.092153, -10.377712], [-79.036953, -8.386568], [-79.44592, -7.930833], [-79.760578, -7.194341], [-80.537482, -6.541668], [-81.249996, -6.136834], [-80.926347, -5.690557], [-81.410943, -4.736765], [-81.09967, -4.036394], [-80.302561, -3.404856], [-80.184015, -3.821162], [-80.469295, -4.059287], [-80.442242, -4.425724], [-80.028908, -4.346091], [-79.624979, -4.454198], [-79.205289, -4.959129], [-78.639897, -4.547784], [-78.450684, -3.873097], [-77.837905, -3.003021], [-76.635394, -2.608678], [-75.544996, -1.56161], [-75.233723, -0.911417], [-75.373223, -0.152032], [-75.106625, -0.057205], [-74.441601, -0.53082], [-74.122395, -1.002833], [-73.659504, -1.260491], [-73.070392, -2.308954], [-72.325787, -2.434218], [-71.774761, -2.16979], [-71.413646, -2.342802], [-70.813476, -2.256865], [-70.047709, -2.725156], [-70.692682, -3.742872], [-70.394044, -3.766591], [-69.893635, -4.298187], [-70.794769, -4.251265], [-70.928843, -4.401591], [-71.748406, -4.593983], [-72.891928, -5.274561], [-72.964507, -5.741251], [-73.219711, -6.089189], [-73.120027, -6.629931], [-73.724487, -6.918595], [-73.723401, -7.340999], [-73.987235, -7.52383], [-73.571059, -8.424447], [-73.015383, -9.032833], [-73.226713, -9.462213], [-72.563033, -9.520194], [-72.184891, -10.053598], [-71.302412, -10.079436], [-70.481894, -9.490118], [-70.548686, -11.009147], [-70.093752, -11.123972], [-69.529678, -10.951734]]]}}, {"type": "Feature", "properties": {"scalerank": 1, "featurecla": "Admin-0 country", "LABELRANK": 2, "SOVEREIGNT": "Vietnam", "SOV_A3": "VNM", "ADM0_DIF": 0, "LEVEL": 2, "TYPE": "Sovereign country", "ADMIN": "Vietnam", "ADM0_A3": "VNM", "GEOU_DIF": 0, "GEOUNIT": "Vietnam", "GU_A3": "VNM", "SU_DIF": 0, "SUBUNIT": "Vietnam", "SU_A3": "VNM", "BRK_DIFF": 0, "NAME": "Vietnam", "NAME_LONG": "Vietnam", "BRK_A3": "VNM", "BRK_NAME": "Vietnam", "BRK_GROUP": null, "ABBREV": "Viet.", "POSTAL": "VN", "FORMAL_EN": "Socialist Republic of Vietnam", "FORMAL_FR": null, "NAME_CIAWF": "Vietnam", "NOTE_ADM0": null, "NOTE_BRK": null, "NAME_SORT": "Vietnam", "NAME_ALT": null, "MAPCOLOR7": 5, "MAPCOLOR8": 6, "MAPCOLOR9": 5, "MAPCOLOR13": 4, "POP_EST": 96160163, "POP_RANK": 16, "GDP_MD_EST": 594900, "POP_YEAR": 2017, "LASTCENSUS": 2009, "GDP_YEAR": 2016, "ECONOMY": "5. Emerging region: G20", "INCOME_GRP": "4. Lower middle income", "WIKIPEDIA": -99, "FIPS_10_": "VM", "ISO_A2": "VN", "ISO_A3": "VNM", "ISO_A3_EH": "VNM", "ISO_N3": "704", "UN_A3": "704", "WB_A2": "VN", "WB_A3": "VNM", "WOE_ID": 23424984, "WOE_ID_EH": 23424984, "WOE_NOTE": "Exact WOE match as country", "ADM0_A3_IS": "VNM", "ADM0_A3_US": "VNM", "ADM0_A3_UN": -99, "ADM0_A3_WB": -99, "CONTINENT": "Asia", "REGION_UN": "Asia", "SUBREGION": "South-Eastern Asia", "REGION_WB": "East Asia & Pacific", "NAME_LEN": 7, "LONG_LEN": 7, "ABBREV_LEN": 5, "TINY": 2, "HOMEPART": 1, "MIN_ZOOM": 0, "MIN_LABEL": 2, "MAX_LABEL": 7}, "bbox": [102.170436, 8.59976, 109.33527, 23.352063], "geometry": {"type": "Polygon", "coordinates": [[[102.170436, 22.464753], [102.706992, 22.708795], [103.504515, 22.703757], [104.476858, 22.81915], [105.329209, 23.352063], [105.811247, 22.976892], [106.725403, 22.794268], [106.567273, 22.218205], [107.04342, 21.811899], [108.05018, 21.55238], [106.715068, 20.696851], [105.881682, 19.75205], [105.662006, 19.058165], [106.426817, 18.004121], [107.361954, 16.697457], [108.269495, 16.079742], [108.877107, 15.276691], [109.33527, 13.426028], [109.200136, 11.666859], [108.36613, 11.008321], [107.220929, 10.364484], [106.405113, 9.53084], [105.158264, 8.59976], [104.795185, 9.241038], [105.076202, 9.918491], [104.334335, 10.486544], [105.199915, 10.88931], [106.24967, 10.961812], [105.810524, 11.567615], [107.491403, 12.337206], [107.614548, 13.535531], [107.382727, 14.202441], [107.564525, 15.202173], [107.312706, 15.908538], [106.556008, 16.604284], [105.925762, 17.485315], [105.094598, 18.666975], [103.896532, 19.265181], [104.183388, 19.624668], [104.822574, 19.886642], [104.435, 20.758733], [103.203861, 20.766562], [102.754896, 21.675137], [102.170436, 22.464753]]]}}], "bbox": [-180, -90, 180, 83.64513]}